HIMAWARI-8              
1 40267U 14060A   24162.47839698 -.00000276  00000+0  00000+0 0  9993
2 40267   0.0625 123.6153 0000743 330.2758 118.3130  1.00270787 35475
